{"type": "FeatureCollection", "features": [ {"type": "Feature", "properties": {"norad_id": 66819, "name": "STARLINK-35989", "group": "last-30-days", "lat": -18.06459396382763, "lon": 164.98116509249195, "alt_km": 416.304987618033, "timestamp": "2025-12-23T18:59:30.758194+00:00", "meta": {"OBJECT_NAME": "STARLINK-35989", "OBJECT_ID": "2025-278AE", "EPOCH": "2025-12-23T06:00:00.999648", "MEAN_MOTION": 15.50539216, "ECCENTRICITY": 0.00016861, "INCLINATION": 43, "RA_OF_ASC_NODE": 188.6367, "ARG_OF_PERICENTER": 267.598, "MEAN_ANOMALY": 280.1606, "EPHEMERIS_TYPE": 0, "CLASSIFICATION_TYPE": "U", "NORAD_CAT_ID": 66819, "ELEMENT_SET_NO": 999, "REV_AT_EPOCH": 464, "BSTAR": 0.0004726637, "MEAN_MOTION_DOT": 0.00027445, "MEAN_MOTION_DDOT": 0}, "tle": {"line1": "1 66819U 25278AE  25357.25001157  .00027445  00000+0  47266-3 0  9996", "line2": "2 66819  43.0000 188.6367 0001686 267.5980 280.1606 15.50539216  4640"}}, "geometry": {"type": "Point", "coordinates": [164.98116509249195, -18.06459396382763]}}, {"type": "Feature", "properties": {"norad_id": 66820, "name": "KOMPSAT-7", "group": "last-30-days", "lat": -58.05143662292894, "lon": 111.02641857550573, "alt_km": 564.4141777327177, "timestamp": "2025-12-23T18:59:30.758203+00:00", "meta": {"OBJECT_NAME": "KOMPSAT-7", "OBJECT_ID": "2025-279A", "EPOCH": "2025-12-23T06:43:42.486240", "MEAN_MOTION": 15.00661266, "ECCENTRICITY": 0.00111458, "INCLINATION": 97.6455, "RA_OF_ASC_NODE": 302.963, "ARG_OF_PERICENTER": 228.1521, "MEAN_ANOMALY": 131.8752, "EPHEMERIS_TYPE": 0, "CLASSIFICATION_TYPE": "U", "NORAD_CAT_ID": 66820, "ELEMENT_SET_NO": 999, "REV_AT_EPOCH": 323, "BSTAR": 0.00024771214, "MEAN_MOTION_DOT": 3.078e-05, "MEAN_MOTION_DDOT": 0}, "tle": {"line1": "1 66820U 25279A   25357.28035285  .00003078  00000+0  24771-3 0  9993", "line2": "2 66820  97.6455 302.9630 0011145 228.1521 131.8752 15.00661266  3234"}}, "geometry": {"type": "Point", "coordinates": [111.02641857550573, -58.05143662292894]}}, {"type": "Feature", "properties": {"norad_id": 66821, "name": "STARLINK-35966", "group": "last-30-days", "lat": -16.36534760618544, "lon": -5.712724261111883, "alt_km": 412.82613464752103, "timestamp": "2025-12-23T18:59:30.758214+00:00", "meta": {"OBJECT_NAME": "STARLINK-35966", "OBJECT_ID": "2025-280A", "EPOCH": "2025-12-23T01:08:07.728288", "MEAN_MOTION": 15.52532634, "ECCENTRICITY": 0.00032817, "INCLINATION": 70.0005, "RA_OF_ASC_NODE": 170.1845, "ARG_OF_PERICENTER": 274.403, "MEAN_ANOMALY": 85.6782, "EPHEMERIS_TYPE": 0, "CLASSIFICATION_TYPE": "U", "NORAD_CAT_ID": 66821, "ELEMENT_SET_NO": 999, "REV_AT_EPOCH": 453, "BSTAR": 0.0010895255, "MEAN_MOTION_DOT": 0.00067465, "MEAN_MOTION_DDOT": 0}, "tle": {"line1": "1 66821U 25280A   25357.04731167  .00067465  00000+0  10895-2 0  9993", "line2": "2 66821  70.0005 170.1845 0003281 274.4030  85.6782 15.52532634  4531"}}, "geometry": {"type": "Point", "coordinates": [-5.712724261111883, -16.36534760618544]}}, {"type": "Feature", "properties": {"norad_id": 66822, "name": "STARLINK-35958", "group": "last-30-days", "lat": -18.1907259676548, "lon": -4.980247959023286, "alt_km": 412.73543187048926, "timestamp": "2025-12-23T18:59:30.758223+00:00", "meta": {"OBJECT_NAME": "STARLINK-35958", "OBJECT_ID": "2025-280B", "EPOCH": "2025-12-23T01:07:38.108640", "MEAN_MOTION": 15.52537146, "ECCENTRICITY": 0.00032844, "INCLINATION": 70.0002, "RA_OF_ASC_NODE": 170.1839, "ARG_OF_PERICENTER": 271.4121, "MEAN_ANOMALY": 88.6689, "EPHEMERIS_TYPE": 0, "CLASSIFICATION_TYPE": "U", "NORAD_CAT_ID": 66822, "ELEMENT_SET_NO": 999, "REV_AT_EPOCH": 453, "BSTAR": 0.0013154544, "MEAN_MOTION_DOT": 0.00081649, "MEAN_MOTION_DDOT": 0}, "tle": {"line1": "1 66822U 25280B   25357.04696885  .00081649  00000+0  13155-2 0  9993", "line2": "2 66822  70.0002 170.1839 0003284 271.4121  88.6689 15.52537146  4535"}}, "geometry": {"type": "Point", "coordinates": [-4.980247959023286, -18.1907259676548]}}, {"type": "Feature", "properties": {"norad_id": 66823, "name": "STARLINK-35957", "group": "last-30-days", "lat": -19.992083693886773, "lon": -4.242568520018086, "alt_km": 412.8282285091782, "timestamp": "2025-12-23T18:59:30.758232+00:00", "meta": {"OBJECT_NAME": "STARLINK-35957", "OBJECT_ID": "2025-280C", "EPOCH": "2025-12-23T04:12:42.013728", "MEAN_MOTION": 15.52555397, "ECCENTRICITY": 0.00032588, "INCLINATION": 70.0001, "RA_OF_ASC_NODE": 169.829, "ARG_OF_PERICENTER": 273.1571, "MEAN_ANOMALY": 86.9243, "EPHEMERIS_TYPE": 0, "CLASSIFICATION_TYPE": "U", "NORAD_CAT_ID": 66823, "ELEMENT_SET_NO": 999, "REV_AT_EPOCH": 455, "BSTAR": 0.0016738141, "MEAN_MOTION_DOT": 0.00104304, "MEAN_MOTION_DDOT": 0}, "tle": {"line1": "1 66823U 25280C   25357.17548627  .00104304  00000+0  16738-2 0  9992", "line2": "2 66823  70.0001 169.8290 0003258 273.1571  86.9243 15.52555397  4557"}}, "geometry": {"type": "Point", "coordinates": [-4.242568520018086, -19.992083693886773]}}, {"type": "Feature", "properties": {"norad_id": 66824, "name": "STARLINK-35896", "group": "last-30-days", "lat": -21.777275692477332, "lon": -3.4926371852749027, "alt_km": 413.0255016040519, "timestamp": "2025-12-23T18:59:30.758241+00:00", "meta": {"OBJECT_NAME": "STARLINK-35896", "OBJECT_ID": "2025-280D", "EPOCH": "2025-12-23T04:12:12.382848", "MEAN_MOTION": 15.5255379, "ECCENTRICITY": 0.00034014, "INCLINATION": 70.0001, "RA_OF_ASC_NODE": 169.8276, "ARG_OF_PERICENTER": 277.7523, "MEAN_ANOMALY": 82.3278, "EPHEMERIS_TYPE": 0, "CLASSIFICATION_TYPE": "U", "NORAD_CAT_ID": 66824, "ELEMENT_SET_NO": 999, "REV_AT_EPOCH": 455, "BSTAR": 0.0017963199, "MEAN_MOTION_DOT": 0.00112055, "MEAN_MOTION_DDOT": 0}, "tle": {"line1": "1 66824U 25280D   25357.17514332  .00112055  00000+0  17963-2 0  9992", "line2": "2 66824  70.0001 169.8276 0003401 277.7523  82.3278 15.52553790  4552"}}, "geometry": {"type": "Point", "coordinates": [-3.4926371852749027, -21.777275692477332]}}, {"type": "Feature", "properties": {"norad_id": 66825, "name": "STARLINK-35476", "group": "last-30-days", "lat": -23.50709725526381, "lon": -2.74623215417959, "alt_km": 412.94829159122673, "timestamp": "2025-12-23T18:59:30.758250+00:00", "meta": {"OBJECT_NAME": "STARLINK-35476", "OBJECT_ID": "2025-280E", "EPOCH": "2025-12-23T01:06:09.124416", "MEAN_MOTION": 15.52534124, "ECCENTRICITY": 0.00033302, "INCLINATION": 70.0003, "RA_OF_ASC_NODE": 170.1793, "ARG_OF_PERICENTER": 268.8003, "MEAN_ANOMALY": 91.2803, "EPHEMERIS_TYPE": 0, "CLASSIFICATION_TYPE": "U", "NORAD_CAT_ID": 66825, "ELEMENT_SET_NO": 999, "REV_AT_EPOCH": 453, "BSTAR": 0.0010653182, "MEAN_MOTION_DOT": 0.00065954, "MEAN_MOTION_DDOT": 0}, "tle": {"line1": "1 66825U 25280E   25357.04593894  .00065954  00000+0  10653-2 0  9993", "line2": "2 66825  70.0003 170.1793 0003330 268.8003  91.2803 15.52534124  4530"}}, "geometry": {"type": "Point", "coordinates": [-2.74623215417959, -23.50709725526381]}}, {"type": "Feature", "properties": {"norad_id": 66826, "name": "STARLINK-35898", "group": "last-30-days", "lat": -25.22632578258387, "lon": -1.9838753151413993, "alt_km": 413.2893214548558, "timestamp": "2025-12-23T18:59:30.758259+00:00", "meta": {"OBJECT_NAME": "STARLINK-35898", "OBJECT_ID": "2025-280F", "EPOCH": "2025-12-23T02:38:26.255040", "MEAN_MOTION": 15.52533092, "ECCENTRICITY": 0.00033166, "INCLINATION": 70.0003, "RA_OF_ASC_NODE": 170.0009, "ARG_OF_PERICENTER": 273.2097, "MEAN_ANOMALY": 86.871, "EPHEMERIS_TYPE": 0, "CLASSIFICATION_TYPE": "U", "NORAD_CAT_ID": 66826, "ELEMENT_SET_NO": 999, "REV_AT_EPOCH": 454, "BSTAR": 0.00072900905, "MEAN_MOTION_DOT": 0.00044959, "MEAN_MOTION_DDOT": 0}, "tle": {"line1": "1 66826U 25280F   25357.11002610  .00044959  00000+0  72901-3 0  9990", "line2": "2 66826  70.0003 170.0009 0003316 273.2097  86.8710 15.52533092  4548"}}, "geometry": {"type": "Point", "coordinates": [-1.9838753151413993, -25.22632578258387]}}, {"type": "Feature", "properties": {"norad_id": 66827, "name": "STARLINK-35959", "group": "last-30-days", "lat": -27.118355638031783, "lon": -1.1162279432291144, "alt_km": 413.23950695553594, "timestamp": "2025-12-23T18:59:30.758282+00:00", "meta": {"OBJECT_NAME": "STARLINK-35959", "OBJECT_ID": "2025-280G", "EPOCH": "2025-12-23T02:37:56.313984", "MEAN_MOTION": 15.52566249, "ECCENTRICITY": 0.00033159, "INCLINATION": 70.0002, "RA_OF_ASC_NODE": 169.9998, "ARG_OF_PERICENTER": 274.8108, "MEAN_ANOMALY": 85.27, "EPHEMERIS_TYPE": 0, "CLASSIFICATION_TYPE": "U", "NORAD_CAT_ID": 66827, "ELEMENT_SET_NO": 999, "REV_AT_EPOCH": 454, "BSTAR": 0.0010242525, "MEAN_MOTION_DOT": 0.00063458, "MEAN_MOTION_DDOT": 0}, "tle": {"line1": "1 66827U 25280G   25357.10967956  .00063458  00000+0  10243-2 0  9998", "line2": "2 66827  70.0002 169.9998 0003315 274.8108  85.2700 15.52566249  4543"}}, "geometry": {"type": "Point", "coordinates": [-1.1162279432291144, -27.118355638031783]}}, {"type": "Feature", "properties": {"norad_id": 66828, "name": "STARLINK-35982", "group": "last-30-days", "lat": -30.58853518175437, "lon": 0.5621855511187254, "alt_km": 413.4091612476659, "timestamp": "2025-12-23T18:59:30.758291+00:00", "meta": {"OBJECT_NAME": "STARLINK-35982", "OBJECT_ID": "2025-280H", "EPOCH": "2025-12-23T04:09:44.140320", "MEAN_MOTION": 15.52547724, "ECCENTRICITY": 0.00032526, "INCLINATION": 70.0001, "RA_OF_ASC_NODE": 169.8206, "ARG_OF_PERICENTER": 276.1042, "MEAN_ANOMALY": 83.9775, "EPHEMERIS_TYPE": 0, "CLASSIFICATION_TYPE": "U", "NORAD_CAT_ID": 66828, "ELEMENT_SET_NO": 999, "REV_AT_EPOCH": 455, "BSTAR": 0.0013542018, "MEAN_MOTION_DOT": 0.00084117, "MEAN_MOTION_DDOT": 0}, "tle": {"line1": "1 66828U 25280H   25357.17342755  .00084117  00000+0  13542-2 0  9990", "line2": "2 66828  70.0001 169.8206 0003252 276.1042  83.9775 15.52547724  4551"}}, "geometry": {"type": "Point", "coordinates": [0.5621855511187254, -30.58853518175437]}}]}